NORAD_CAT_ID,OBJECT_NAME,OBJECT_TYPE,EPOCH,MEAN_MOTION,ECCENTRICITY,INCLINATION,RA_OF_ASC_NODE,ARG_OF_PERICENTER,MEAN_ANOMALY,BSTAR,MEAN_MOTION_DOT,MEAN_MOTION_DDOT,TLE_LINE0,TLE_LINE1,TLE_LINE2,SEMIMAJOR_AXIS,PERIOD,APOGEE,PERIGEE,DECAYED
51897.0,STARLINK-3598,PAYLOAD,2024-03-26 09:21:43,15.08837791,0.000139,53.2195,321.2469,89.25,270.8652,-9.6563e-05,-1.824e-05,0.0,0 STARLINK-3598,1 51897U 22022AX  24086.39008352 -.00001824  00000-0 -96563-4 0  9998,2 51897  53.2195 321.2469 0001390  89.2500 270.8652 15.08837791115568,6917.887,95.438,540.714,538.791,0.0
51897.0,STARLINK-3598,PAYLOAD,2024-03-26 22:04:48,15.08824332,0.000148,53.2181,318.867,115.5674,244.5471,0.00025585,3.785e-05,0.0,0 STARLINK-3598,1 51897U 22022AX  24086.92000808  .00003785  00000-0  25585-3 0  9996,2 51897  53.2181 318.8670 0001480 115.5674 244.5471 15.08824332115647,6917.928,95.439,540.817,538.769,0.0
51897.0,STARLINK-3598,PAYLOAD,2024-03-27 21:55:35,15.08842236,0.0001248,53.2187,314.4107,91.0291,269.0844,-6.8312e-05,-1.375e-05,0.0,0 STARLINK-3598,1 51897U 22022AX  24087.91360476 -.00001375  00000-0 -68312-4 0  9997,2 51897  53.2187 314.4107 0001248  91.0291 269.0844 15.08842236115790,6917.874,95.437,540.602,538.875,0.0
51897.0,STARLINK-3598,PAYLOAD,2024-03-28 07:27:54,15.08833561,0.0001149,53.2187,312.6262,89.3718,270.7406,0.00024131,3.554e-05,0.0,0 STARLINK-3598,1 51897U 22022AX  24088.31104434  .00003554  00000-0  24131-3 0  9991,2 51897  53.2187 312.6262 0001149  89.3718 270.7406 15.08833561115857,6917.9,95.438,540.56,538.97,0.0
51897.0,STARLINK-3598,PAYLOAD,2024-03-28 21:46:22,15.08837122,0.0001412,53.2183,309.9499,89.7326,270.3828,0.00015379,2.16e-05,0.0,0 STARLINK-3598,1 51897U 22022AX  24088.90720669  .00002160  00000-0  15379-3 0  9996,2 51897  53.2183 309.9499 0001412  89.7326 270.3828 15.08837122115947,6917.889,95.438,540.731,538.777,0.0
51897.0,STARLINK-3598,PAYLOAD,2024-03-29 00:57:08,15.0884428,0.0001206,53.2177,309.354,92.2755,267.8375,8.2918e-05,1.032e-05,0.0,0 STARLINK-3598,1 51897U 22022AX  24089.03968300  .00001032  00000-0  82918-4 0  9998,2 51897  53.2177 309.3540 0001206  92.2755 267.8375 15.08844280115960,6917.867,95.437,540.567,538.898,0.0
51897.0,STARLINK-3598,PAYLOAD,2024-03-30 07:09:28,15.0884582,0.0001026,53.2169,303.7019,76.523,283.5877,6.1946e-05,6.98e-06,0.0,0 STARLINK-3598,1 51897U 22022AX  24090.29824132  .00000698  00000-0  61946-4 0  9997,2 51897  53.2169 303.7019 0001026  76.5230 283.5877 15.08845820116158,6917.863,95.437,540.437,539.018,0.0
51897.0,STARLINK-3598,PAYLOAD,2024-03-30 21:27:57,15.08834996,0.0001081,53.218,301.0267,81.3111,278.8004,-2.826e-05,-7.37e-06,0.0,0 STARLINK-3598,1 51897U 22022AX  24090.89441194 -.00000737  00000-0 -28260-4 0  9994,2 51897  53.2180 301.0267 0001081  81.3111 278.8004 15.08834996116241,6917.896,95.438,540.509,539.013,0.0
51897.0,STARLINK-3598,PAYLOAD,2024-03-31 07:00:15,15.08846477,0.0001211,53.218,299.243,83.4289,276.6841,8.818e-06,-1.47e-06,0.0,0 STARLINK-3598,1 51897U 22022AX  24091.29184207 -.00000147  00000-0  88180-5 0  9990,2 51897  53.2180 299.2430 0001211  83.4289 276.6841 15.08846477116304,6917.861,95.437,540.563,538.888,0.0
51897.0,STARLINK-3598,PAYLOAD,2024-03-31 22:54:06,15.08840402,0.0001147,53.2156,296.2688,82.4285,277.6837,0.00016255,2.3e-05,0.0,0 STARLINK-3598,1 51897U 22022AX  24091.95423961  .00002300  00000-0  16255-3 0  9990,2 51897  53.2156 296.2688 0001147  82.4285 277.6837 15.08840402116401,6917.879,95.438,540.538,538.951,0.0
51897.0,STARLINK-3598,PAYLOAD,2024-04-01 13:12:34,15.0884212,0.0001804,53.2156,293.5942,83.4194,276.7004,0.00016094,2.274e-05,0.0,0 STARLINK-3598,1 51897U 22022AX  24092.55040113  .00002274  00000-0  16094-3 0  9992,2 51897  53.2156 293.5942 0001804  83.4194 276.7004 15.08842120116498,6917.874,95.437,540.987,538.491,0.0
51897.0,STARLINK-3598,PAYLOAD,2024-04-01 19:34:07,15.08832381,0.0001112,53.2157,292.4043,87.7569,272.3551,6.9947e-05,8.25e-06,0.0,0 STARLINK-3598,1 51897U 22022AX  24092.81536890  .00000825  00000-0  69947-4 0  9999,2 51897  53.2157 292.4043 0001112  87.7569 272.3551 15.08832381116536,6917.904,95.438,540.538,538.999,0.0
51897.0,STARLINK-3598,PAYLOAD,2024-04-01 22:44:53,15.08841443,0.0001129,53.2167,291.8081,92.1774,267.9347,4.4932e-05,4.27e-06,0.0,0 STARLINK-3598,1 51897U 22022AX  24092.94784430  .00000427  00000-0  44932-4 0  9993,2 51897  53.2167 291.8081 0001129  92.1774 267.9347 15.08841443116552,6917.876,95.437,540.522,538.96,0.0
51897.0,STARLINK-3598,PAYLOAD,2024-04-02 06:41:49,15.08843244,0.0001116,53.2167,290.3211,92.2839,267.8281,5.7135e-05,6.22e-06,0.0,0 STARLINK-3598,1 51897U 22022AX  24093.27904255  .00000622  00000-0  57135-4 0  9995,2 51897  53.2167 290.3211 0001116  92.2839 267.8281 15.08843244116603,6917.87,95.437,540.508,538.963,0.0
51897.0,STARLINK-3598,PAYLOAD,2024-04-02 19:24:55,15.08832987,0.0001058,53.2186,287.9421,96.7319,263.3794,-2.412e-06,-3.26e-06,0.0,0 STARLINK-3598,1 51897U 22022AX  24093.80897110 -.00000326  00000-0 -24120-5 0  9997,2 51897  53.2186 287.9421 0001058  96.7319 263.3794 15.08832987116686,6917.902,95.438,540.499,539.035,0.0
51897.0,STARLINK-3598,PAYLOAD,2024-04-03 12:54:09,15.08836143,0.0001218,53.2183,284.6716,97.643,262.4701,0.00010078,1.316e-05,0.0,0 STARLINK-3598,1 51897U 22022AX  24094.53760653  .00001316  00000-0  10078-3 0  9992,2 51897  53.2183 284.6716 0001218  97.6430 262.4701 15.08836143116794,6917.892,95.438,540.6,538.915,0.0
51897.0,STARLINK-3598,PAYLOAD,2024-04-03 22:26:28,15.08839725,0.0001174,53.2185,282.8874,96.3873,263.7253,6.0499e-05,6.75e-06,0.0,0 STARLINK-3598,1 51897U 22022AX  24094.93504630  .00000675  00000-0  60499-4 0  9997,2 51897  53.2185 282.8874 0001174  96.3873 263.7253 15.08839725116851,6917.881,95.438,540.558,538.934,0.0
51897.0,STARLINK-3598,PAYLOAD,2024-04-04 19:06:28,15.08835866,0.0001132,53.217,279.022,87.1633,272.9489,0.00011142,1.486e-05,0.0,0 STARLINK-3598,1 51897U 22022AX  24095.79616839  .00001486  00000-0  11142-3 0  9998,2 51897  53.2170 279.0220 0001132  87.1633 272.9489 15.08835866116983,6917.893,95.438,540.541,538.975,0.0
51897.0,STARLINK-3598,PAYLOAD,2024-04-05 04:38:47,15.0884455,0.000114,53.2174,277.2377,86.705,273.4073,0.00010949,1.455e-05,0.0,0 STARLINK-3598,1 51897U 22022AX  24096.19360282  .00001455  00000-0  10949-3 0  9991,2 51897  53.2174 277.2377 0001140  86.7050 273.4073 15.08844550117040,6917.866,95.437,540.52,538.943,0.0
51897.0,STARLINK-3598,PAYLOAD,2024-04-05 12:35:43,15.08835387,0.000124,53.2187,275.757,91.7543,268.3591,6.1877e-05,6.97e-06,0.0,0 STARLINK-3598,1 51897U 22022AX  24096.52481075  .00000697  00000-0  61877-4 0  9996,2 51897  53.2187 275.7570 0001240  91.7543 268.3591 15.08835387117097,6917.894,95.438,540.617,538.902,0.0
51897.0,STARLINK-3598,PAYLOAD,2024-04-05 18:57:16,15.08833958,0.0001241,53.2189,274.5647,92.0443,268.0691,1.3642e-05,-7.1e-07,0.0,0 STARLINK-3598,1 51897U 22022AX  24096.78977296 -.00000071  00000-0  13642-4 0  9993,2 51897  53.2189 274.5647 0001241  92.0443 268.0691 15.08833958117130,6917.899,95.438,540.622,538.905,0.0
51897.0,STARLINK-3598,PAYLOAD,2024-04-06 04:29:34,15.08843468,0.0001283,53.2181,272.7777,90.5307,269.5833,6.2089e-05,7e-06,0.0,0 STARLINK-3598,1 51897U 22022AX  24097.18720509  .00000700  00000-0  62089-4 0  9998,2 51897  53.2181 272.7777 0001283  90.5307 269.5833 15.08843468117191,6917.87,95.437,540.622,538.847,0.0
51897.0,STARLINK-3598,PAYLOAD,2024-04-06 10:51:07,15.08839181,0.0001332,53.2197,271.5904,95.1589,264.9555,5.8387e-05,6.41e-06,0.0,0 STARLINK-3598,1 51897U 22022AX  24097.45216808  .00000641  00000-0  58387-4 0  9990,2 51897  53.2197 271.5904 0001332  95.1589 264.9555 15.08839181117237,6917.883,95.438,540.669,538.826,0.0
51897.0,STARLINK-3598,PAYLOAD,2024-04-07 10:41:54,15.08835256,0.000152,53.2198,267.1295,100.1625,259.9539,4.2156e-05,3.83e-06,0.0,0 STARLINK-3598,1 51897U 22022AX  24098.44577318  .00000383  00000-0  42156-4 0  9996,2 51897  53.2198 267.1295 0001520 100.1625 259.9539 15.08835256117380,6917.895,95.438,540.811,538.708,0.0
51897.0,STARLINK-3598,PAYLOAD,2024-04-08 04:11:10,15.08816169,0.0002021,53.2194,263.8544,90.8702,269.2522,0.00039784,6.045e-05,0.0,0 STARLINK-3598,1 51897U 22022AX  24099.17442198  .00006045  00000-0  39784-3 0  9997,2 51897  53.2194 263.8544 0002021  90.8702 269.2522 15.08816169117494,6917.953,95.439,541.216,538.42,0.0
51897.0,STARLINK-3598,PAYLOAD,2024-04-08 12:08:05,15.08836772,0.0001696,53.2167,262.3687,83.9442,276.1743,8.1506e-05,1.009e-05,0.0,0 STARLINK-3598,1 51897U 22022AX  24099.50561455  .00001009  00000-0  81506-4 0  9997,2 51897  53.2167 262.3687 0001696  83.9442 276.1743 15.08836772117547,6917.89,95.438,540.929,538.582,0.0
51897.0,STARLINK-3598,PAYLOAD,2024-04-08 16:54:14,15.08838928,0.000172,53.2169,261.4767,84.0645,276.0543,9.4103e-05,1.21e-05,0.0,0 STARLINK-3598,1 51897U 22022AX  24099.70433335  .00001210  00000-0  94103-4 0  9995,2 51897  53.2169 261.4767 0001720  84.0645 276.0543 15.08838928117578,6917.884,95.438,540.939,538.559,0.0
51897.0,STARLINK-3598,PAYLOAD,2024-04-09 10:23:29,15.0883998,0.0001782,53.2178,258.207,83.098,277.0215,3.6415e-05,2.91e-06,0.0,0 STARLINK-3598,1 51897U 22022AX  24100.43297512  .00000291  00000-0  36415-4 0  9993,2 51897  53.2178 258.2070 0001782  83.0980 277.0215 15.08839980117686,6917.88,95.438,540.978,538.513,0.0
51897.0,STARLINK-3598,PAYLOAD,2024-04-09 16:45:01,15.08840471,0.000177,53.2177,257.0176,83.3415,276.7778,3.7853e-05,3.14e-06,0.0,0 STARLINK-3598,1 51897U 22022AX  24100.69793482  .00000314  00000-0  37853-4 0  9991,2 51897  53.2177 257.0176 0001770  83.3415 276.7778 15.08840471117724,6917.879,95.438,540.968,538.519,0.0
51897.0,STARLINK-3598,PAYLOAD,2024-04-10 03:52:43,15.08839916,0.0001816,53.2171,254.9368,82.063,278.0569,4.7e-05,4.6e-06,0.0,0 STARLINK-3598,1 51897U 22022AX  24101.16161511  .00000460  00000-0  47000-4 0  9993,2 51897  53.2171 254.9368 0001816  82.0630 278.0569 15.08839916117795,6917.881,95.438,541.002,538.489,0.0
